{
  "type": "FeatureCollection",
  "features": [
    {
      "type": "Feature",
      "properties": {
        "district": "5",
        "population": 6587,
        "hispanic_pop": 3032,
        "nh_white_pop": 2433,
        "reg_voters_2020": 4566,
        "votes_cast_2020": 3677
      },
      "geometry": {
        "type": "Polygon",
        "coordinates": [
          [
            [
              -117.76006078009199,
              34.091463791179976
            ],
            [
              -117.76211792209291,
              34.09281774074165
            ],
            [
              -117.7643996429149,
              34.089730406561344
            ],
            [
              -117.76570220007704,
              34.09270615231094
            ],
            [
              -117.76643881861011,
              34.09376251689324
            ],
            [
              -117.76784917360638,
              34.094923014899514
            ],
            [
              -117.76999614713573,
              34.09570411036805
            ],
            [
              -117.77112802439389,
              34.09389642132139
            ],
            [
              -117.77682334329599,
              34.086174253204774
            ],
            [
              -117.78023694137612,
              34.08805650360947
            ],
            [
              -117.78445902321207,
              34.08917988213191
            ],
            [
              -117.78445902321207,
              34.089432826233235
            ],
            [
              -117.78579751298558,
              34.09060826243493
            ],
            [
              -117.78662396304709,
              34.0904743528053
            ],
            [
              -117.79480761528656,
              34.09093559619335
            ],
            [
              -117.79471778375814,
              34.09218540435588
            ],
            [
              -117.79323556353914,
              34.092118450814944
            ],
            [
              -117.7931636983164,
              34.09320457949593
            ],
            [
              -117.79268759121574,
              34.09385922566815
            ],
            [
              -117.7916994444031,
              34.09395593433255
            ],
            [
              -117.79008247689144,
              34.094833746386996
            ],
            [
              -117.78938179096971,
              34.09500484428662
            ],
            [
              -117.78754922778987,
              34.09489325873914
            ],
            [
              -117.78727973320458,
              34.0954809409697
            ],
            [
              -117.78914822899581,
              34.095949596026564
            ],
            [
              -117.78992976329312,
              34.096016546537115
            ],
            [
              -117.79088197749442,
              34.095927279177936
            ],
            [
              -117.79305590048229,
              34.09530240502737
            ],
            [
              -117.79418777774043,
              34.09524289296292
            ],
            [
              -117.79473575006382,
              34.095332161043906
            ],
            [
              -117.79522982347015,
              34.09587520650824
            ],
            [
              -117.79586762732197,
              34.095927279177936
            ],
            [
              -117.79652339747948,
              34.09745968911279
            ],
            [
              -117.79623593658852,
              34.097779557589234
            ],
            [
              -117.79634373442263,
              34.09831514861037
            ],
            [
              -117.79566101480658,
              34.09886561362781
            ],
            [
              -117.79548135174976,
              34.09942351370836
            ],
            [
              -117.7968018752176,
              34.09944582963508
            ],
            [
              -117.79769120734899,
              34.099921901336636
            ],
            [
              -117.79806849976838,
              34.09985495391545
            ],
            [
              -117.79872426992587,
              34.099490461470886
            ],
            [
              -117.80139226632008,
              34.09940863642061
            ],
            [
              -117.80144616523714,
              34.101335223423106
            ],
            [
              -117.79667611107779,
              34.10135010037216
            ],
            [
              -117.79660424585505,
              34.10269645343239
            ],
            [
              -117.79399014837789,
              34.102064190850896
            ],
            [
              -117.79404404729496,
              34.103031178768816
            ],
            [
              -117.79117842153822,
              34.1030237404424
            ],
            [
              -117.79158266341612,
              34.1039386496865
            ],
            [
              -117.79154673080475,
              34.10666844205076
            ],
            [
              -117.79407099675349,
              34.10666844205076
            ],
            [
              -117.79407099675349,
              34.11027579821662
            ],
            [
              -117.78955247087373,
              34.1102683605271
            ],
            [
              -117.78834872839285,
              34.11006010495525
            ],
            [
              -117.7856088667759,
              34.10931633087059
            ],
            [
              -117.78528547327358,
              34.1102162966822
            ],
            [
              -117.78669582826984,
              34.11058818058561
            ],
            [
              -117.78638141792034,
              34.11144350735908
            ],
            [
              -117.7849351303127,
              34.111079064834776
            ],
            [
              -117.78409969709836,
              34.11327313385406
            ],
            [
              -117.78553700155315,
              34.113667316494436
            ],
            [
              -117.78573463091568,
              34.113191322132465
            ],
            [
              -117.78801635173767,
              34.11377887728555
            ],
            [
              -117.78966026870785,
              34.11392762477811
            ],
            [
              -117.78967823501353,
              34.11754954548425
            ],
            [
              -117.79186114115423,
              34.117542108434336
            ],
            [
              -117.79187012430708,
              34.11944597186658
            ],
            [
              -117.79163656233318,
              34.11944597186658
            ],
            [
              -117.79165452863886,
              34.11972113608314
            ],
            [
              -117.78683057556246,
              34.1199665520614
            ],
            [
              -117.78563581623443,
              34.119505466908194
            ],
            [
              -117.78356969108067,
              34.11943109809966
            ],
            [
              -117.77689520851872,
              34.117200003431044
            ],
            [
              -117.77683232644884,
              34.11632986055594
            ],
            [
              -117.77625740466691,
              34.1142994923651
            ],
            [
              -117.77637418565388,
              34.113421882236054
            ],
            [
              -117.78005727831926,
              34.10306093206797
            ],
            [
              -117.76837019647124,
              34.10004091884357
            ],
            [
              -117.7692685117555,
              34.09759358769192
            ],
            [
              -117.75802160439675,
              34.09464777001686
            ],
            [
              -117.75613514229983,
              34.09428325514606
            ],
            [
              -117.75614412545268,
              34.08996847007071
            ],
            [
              -117.75702447443123,
              34.089983349017814
            ],
            [
              -117.75817431799507,
              34.09024373016888
            ],
            [
              -117.76006078009199,
              34.091463791179976
            ]
          ]
        ]
      }
    },
    {
      "type": "Feature",
      "properties": {
        "district": "1",
        "population": 6372,
        "hispanic_pop": 2481,
        "nh_white_pop": 3013,
        "reg_voters_2020": 4507,
        "votes_cast_2020": 3698
      },
      "geometry": {
        "type": "Polygon",
        "coordinates": [
          [
            [
              -117.7777575911916,
              34.10936095750009
            ],
            [
              -117.77625740466691,
              34.113987123701904
            ],
            [
              -117.77636520250101,
              34.11488703982011
            ],
            [
              -117.77683232644884,
              34.11632986055594
            ],
            [
              -117.77689520851872,
              34.117200003431044
            ],
            [
              -117.76517219405933,
              34.11329544612805
            ],
            [
              -117.76842409538831,
              34.10521058024753
            ],
            [
              -117.76104892690466,
              34.103395655962615
            ],
            [
              -117.76112977528024,
              34.10315019190269
            ],
            [
              -117.75931517840606,
              34.10265182328749
            ],
            [
              -117.75891093652814,
              34.103797322888326
            ],
            [
              -117.75706040704262,
              34.1033287112896
            ],
            [
              -117.75613514229983,
              34.1034254091336
            ],
            [
              -117.75611717599415,
              34.09940119777576
            ],
            [
              -117.75644955264933,
              34.09866476869846
            ],
            [
              -117.75620700752256,
              34.098627575140725
            ],
            [
              -117.75610819284131,
              34.098367219778844
            ],
            [
              -117.7559824287015,
              34.098367219778844
            ],
            [
              -117.75613514229983,
              34.09792833321286
            ],
            [
              -117.75613514229983,
              34.09428325514606
            ],
            [
              -117.75802160439675,
              34.09464777001686
            ],
            [
              -117.7692685117555,
              34.09759358769192
            ],
            [
              -117.76837019647124,
              34.10004091884357
            ],
            [
              -117.78005727831926,
              34.10306093206797
            ],
            [
              -117.7777575911916,
              34.10936095750009
            ]
          ]
        ]
      }
    },
    {
      "type": "Feature",
      "properties": {
        "district": "2",
        "population": 6208,
        "hispanic_pop": 2275,
        "nh_white_pop": 2746,
        "reg_voters_2020": 4197,
        "votes_cast_2020": 3413
      },
      "geometry": {
        "type": "Polygon",
        "coordinates": [
          [
            [
              -117.76837019647124,
              34.10533702843968
            ],
            [
              -117.76517219405933,
              34.11329544612805
            ],
            [
              -117.77689520851872,
              34.117200003431044
            ],
            [
              -117.77694012428293,
              34.11953521441331
            ],
            [
              -117.77307736856069,
              34.119379039894746
            ],
            [
              -117.76816358395585,
              34.11958727252205
            ],
            [
              -117.76160588238088,
              34.119557525035276
            ],
            [
              -117.76159689922804,
              34.11621830312963
            ],
            [
              -117.75071830113583,
              34.11620342879499
            ],
            [
              -117.75062846960742,
              34.108513047514094
            ],
            [
              -117.75621599067543,
              34.11037992580111
            ],
            [
              -117.75613514229983,
              34.1034254091336
            ],
            [
              -117.75706040704262,
              34.1033287112896
            ],
            [
              -117.75891093652814,
              34.103797322888326
            ],
            [
              -117.75931517840606,
              34.10265182328749
            ],
            [
              -117.76112977528024,
              34.10315019190269
            ],
            [
              -117.76104892690466,
              34.103395655962615
            ],
            [
              -117.76842409538831,
              34.10521058024753
            ],
            [
              -117.76837019647124,
              34.10533702843968
            ]
          ]
        ]
      }
    },
    {
      "type": "Feature",
      "properties": {
        "district": "3",
        "population": 6158,
        "hispanic_pop": 1632,
        "nh_white_pop": 3069,
        "reg_voters_2020": 4791,
        "votes_cast_2020": 4138
      },
      "geometry": {
        "type": "Polygon",
        "coordinates": [
          [
            [
              -117.7489755694844,
              34.14109940134537
            ],
            [
              -117.74769996178078,
              34.13992466665644
            ],
            [
              -117.74776284385067,
              34.13744131299167
            ],
            [
              -117.74787962483764,
              34.13675726263556
            ],
            [
              -117.74818505203426,
              34.13635575223905
            ],
            [
              -117.74822996779847,
              34.13449688295183
            ],
            [
              -117.74879590642755,
              34.133292313822764
            ],
            [
              -117.74886777165031,
              34.13219926401543
            ],
            [
              -117.75056558753752,
              34.13223644281252
            ],
            [
              -117.75054762123185,
              34.12902413441083
            ],
            [
              -117.75927924579469,
              34.128986954200805
            ],
            [
              -117.75944094254585,
              34.11992936786806
            ],
            [
              -117.75485055144337,
              34.11992193102742
            ],
            [
              -117.75485055144337,
              34.12068048540293
            ],
            [
              -117.75078118320575,
              34.12068048540293
            ],
            [
              -117.75071830113583,
              34.11620342879499
            ],
            [
              -117.76159689922804,
              34.11621830312963
            ],
            [
              -117.76160588238088,
              34.119557525035276
            ],
            [
              -117.76816358395585,
              34.11958727252205
            ],
            [
              -117.77307736856069,
              34.119379039894746
            ],
            [
              -117.77694012428293,
              34.11953521441331
            ],
            [
              -117.77671554546187,
              34.13189439726237
            ],
            [
              -117.77609570791574,
              34.13314360039404
            ],
            [
              -117.77402958276198,
              34.134779433718485
            ],
            [
              -117.77331093053459,
              34.13577578940965
            ],
            [
              -117.77266414352994,
              34.1356865640057
            ],
            [
              -117.76852291006956,
              34.1357237412688
            ],
            [
              -117.76780425784217,
              34.1365118953977
            ],
            [
              -117.76690594255791,
              34.13677956871277
            ],
            [
              -117.76607050934356,
              34.13791717084324
            ],
            [
              -117.76602559357936,
              34.138259192018914
            ],
            [
              -117.76619627348337,
              34.13871273970385
            ],
            [
              -117.76439065976203,
              34.13926294182437
            ],
            [
              -117.76348336132496,
              34.139775964898426
            ],
            [
              -117.76327674880957,
              34.1399841472864
            ],
            [
              -117.76311505205841,
              34.14051203604243
            ],
            [
              -117.76227063569122,
              34.14060125635143
            ],
            [
              -117.76166876445077,
              34.141188621034196
            ],
            [
              -117.76013264531471,
              34.141738807033455
            ],
            [
              -117.7595577235328,
              34.14177598163391
            ],
            [
              -117.75954874037996,
              34.14276482000242
            ],
            [
              -117.7585605935673,
              34.142891212042436
            ],
            [
              -117.75869534085993,
              34.14370903831968
            ],
            [
              -117.75691667659713,
              34.14390234155577
            ],
            [
              -117.75490445036041,
              34.14355290845997
            ],
            [
              -117.75288324097087,
              34.14374621205327
            ],
            [
              -117.75187712785252,
              34.14332243052069
            ],
            [
              -117.75133813868196,
              34.14255664446551
            ],
            [
              -117.75066440221879,
              34.142742515505134
            ],
            [
              -117.75038592448067,
              34.14307708234603
            ],
            [
              -117.75016134565962,
              34.14313656075682
            ],
            [
              -117.75018829511814,
              34.14113657622715
            ],
            [
              -117.7489755694844,
              34.14109940134537
            ]
          ]
        ]
      }
    },
    {
      "type": "Feature",
      "properties": {
        "district": "4",
        "population": 6100,
        "hispanic_pop": 1802,
        "nh_white_pop": 3128,
        "reg_voters_2020": 4646,
        "votes_cast_2020": 4005
      },
      "geometry": {
        "type": "Polygon",
        "coordinates": [
          [
            [
              -117.77649096664081,
              34.14509189019638
            ],
            [
              -117.77613164052711,
              34.14584278415226
            ],
            [
              -117.77612265737427,
              34.147024871014445
            ],
            [
              -117.77583519648331,
              34.148177203920405
            ],
            [
              -117.77447874040412,
              34.149411297858386
            ],
            [
              -117.7747302686837,
              34.15048925672599
            ],
            [
              -117.77458653823821,
              34.15071971511274
            ],
            [
              -117.76773239261942,
              34.15081635876518
            ],
            [
              -117.7678312073007,
              34.158027150105845
            ],
            [
              -117.75910856589067,
              34.15810148495453
            ],
            [
              -117.759090599585,
              34.16531908708623
            ],
            [
              -117.75474275360926,
              34.16537111699332
            ],
            [
              -117.75471580415072,
              34.15813865235434
            ],
            [
              -117.75037694132783,
              34.15816838626241
            ],
            [
              -117.75034100871646,
              34.151262404959
            ],
            [
              -117.75068236852447,
              34.15102451394878
            ],
            [
              -117.75250594855149,
              34.15112859134819
            ],
            [
              -117.75342223014141,
              34.15031827106498
            ],
            [
              -117.75554225421223,
              34.14713638778912
            ],
            [
              -117.75553327105939,
              34.14628142208784
            ],
            [
              -117.7557039509634,
              34.14564948535599
            ],
            [
              -117.7537995225608,
              34.14550079367328
            ],
            [
              -117.75422173074439,
              34.143612386535786
            ],
            [
              -117.7552368270156,
              34.1435826475031
            ],
            [
              -117.75691667659713,
              34.14390234155577
            ],
            [
              -117.75869534085993,
              34.14370903831968
            ],
            [
              -117.7585605935673,
              34.142891212042436
            ],
            [
              -117.75954874037996,
              34.14276482000242
            ],
            [
              -117.7595577235328,
              34.14177598163391
            ],
            [
              -117.76013264531471,
              34.141738807033455
            ],
            [
              -117.76166876445077,
              34.141188621034196
            ],
            [
              -117.76227063569122,
              34.14060125635143
            ],
            [
              -117.76311505205841,
              34.14051203604243
            ],
            [
              -117.76327674880957,
              34.1399841472864
            ],
            [
              -117.76348336132496,
              34.139775964898426
            ],
            [
              -117.76439065976203,
              34.13926294182437
            ],
            [
              -117.76619627348337,
              34.13871273970385
            ],
            [
              -117.76602559357936,
              34.138259192018914
            ],
            [
              -117.76607050934356,
              34.13791717084324
            ],
            [
              -117.76690594255791,
              34.13677956871277
            ],
            [
              -117.76780425784217,
              34.1365118953977
            ],
            [
              -117.76852291006956,
              34.1357237412688
            ],
            [
              -117.77266414352994,
              34.1356865640057
            ],
            [
              -117.77331093053459,
              34.13577578940965
            ],
            [
              -117.77402958276198,
              34.134779433718485
            ],
            [
              -117.77609570791574,
              34.13314360039404
            ],
            [
              -117.77661673078062,
              34.13228849310099
            ],
            [
              -117.77677842753177,
              34.13120286616115
            ],
            [
              -117.77689520851872,
              34.117200003431044
            ],
            [
              -117.78356969108067,
              34.11943109809966
            ],
            [
              -117.78563581623443,
              34.119505466908194
            ],
            [
              -117.78683057556246,
              34.1199665520614
            ],
            [
              -117.79165452863886,
              34.11972113608314
            ],
            [
              -117.79157368026328,
              34.1203755771091
            ],
            [
              -117.79116045523253,
              34.12087384131232
            ],
            [
              -117.78943568988679,
              34.121453906387565
            ],
            [
              -117.7911963878439,
              34.12200422085751
            ],
            [
              -117.79297505210671,
              34.12227194011547
            ],
            [
              -117.79294810264817,
              34.12387080136879
            ],
            [
              -117.79425065981033,
              34.123878237862115
            ],
            [
              -117.7941608282819,
              34.12543245061436
            ],
            [
              -117.79212165258669,
              34.126265318417595
            ],
            [
              -117.79128621937234,
              34.12700150723342
            ],
            [
              -117.78771092454105,
              34.12836976032557
            ],
            [
              -117.78771092454105,
              34.12892002978156
            ],
            [
              -117.78551005209464,
              34.12892002978156
            ],
            [
              -117.7840008824171,
              34.129708247356604
            ],
            [
              -117.78383020251309,
              34.13170850236106
            ],
            [
              -117.78432427591942,
              34.13193901197784
            ],
            [
              -117.78257256111515,
              34.13356743297611
            ],
            [
              -117.78152153223259,
              34.13408792622176
            ],
            [
              -117.78081186315804,
              34.13461585181083
            ],
            [
              -117.77675147807324,
              34.139716484121905
            ],
            [
              -117.77421822897168,
              34.139694178819944
            ],
            [
              -117.77400263330345,
              34.140006452511855
            ],
            [
              -117.77377805448239,
              34.140965571635505
            ],
            [
              -117.7732480484647,
              34.14131501543208
            ],
            [
              -117.77353550935565,
              34.14155293378576
            ],
            [
              -117.77311330117206,
              34.14163471806511
            ],
            [
              -117.77227786795771,
              34.142341033547275
            ],
            [
              -117.77226888480487,
              34.142920951318494
            ],
            [
              -117.77250244677877,
              34.142482295935174
            ],
            [
              -117.77345466098008,
              34.14225181507534
            ],
            [
              -117.77326601477039,
              34.142564079314965
            ],
            [
              -117.77356245881418,
              34.14259381870616
            ],
            [
              -117.77394873438641,
              34.143091951952655
            ],
            [
              -117.77326601477039,
              34.143426517409836
            ],
            [
              -117.77276295821119,
              34.14350829987564
            ],
            [
              -117.77358042511986,
              34.1437313425618
            ],
            [
              -117.7735894082727,
              34.144511987326396
            ],
            [
              -117.77447874040412,
              34.144080774919615
            ],
            [
              -117.77522434209003,
              34.144407901774564
            ],
            [
              -117.77600587638733,
              34.14456403005425
            ],
            [
              -117.77649096664081,
              34.14509189019638
            ]
          ]
        ]
      }
    }
  ]
}